{"type":"FeatureCollection","crs":{"type":"name","properties":{"name":"EPSG:4326"}},"features":[{"type":"Feature","geometry":{"type":"Polygon","coordinates":[[[-121.932247307912,38.3512239901675],[-121.930242030856,38.3512498177401],[-121.924441444417,38.351109768895],[-121.920407261578,38.3506270549142],[-121.92040339642,38.3505074513795],[-121.920405343093,38.344511872081],[-121.933578193303,38.344317718698],[-121.933652816043,38.3493950575913],[-121.933682879361,38.3512621750805],[-121.932247307912,38.3512239901675]]]},"properties":{"NeighborhoodName":"Brighton Landing"}},{"type":"Feature","geometry":{"type":"Polygon","coordinates":[[[-121.951728225299,38.3668140336948],[-121.947461516059,38.3640010200211],[-121.948983404084,38.3628398158037],[-121.953261086246,38.3656443915566],[-121.951728225299,38.3668140336948]]]},"properties":{"NeighborhoodName":"Rainier Circle Community Group"}},{"type":"Feature","geometry":{"type":"Polygon","coordinates":[[[-121.962551222165,38.3353698657885],[-121.953312222843,38.3353476416673],[-121.953300622898,38.3346448168776],[-121.953234493418,38.3343551134984],[-121.952999586666,38.3340131045188],[-121.952601952796,38.3335902994961],[-121.95237909335,38.3332720386551],[-121.952204510266,38.3328980514721],[-121.952139940262,38.3324996937873],[-121.952134739016,38.3318576872749],[-121.952144819012,38.331421941075],[-121.952113566624,38.3309435142812],[-121.952069132356,38.3302614659158],[-121.951877106685,38.3298595766475],[-121.951547196803,38.329312909914],[-121.951478487362,38.3288962315755],[-121.9515708198,38.3283890447828],[-121.951955818866,38.3277676081852],[-121.952187974977,38.3271431374037],[-121.952170349133,38.3259799735647],[-121.952149689678,38.3224837347525],[-121.952248075863,38.3172923100642],[-121.953670714422,38.3173034115027],[-121.954774326189,38.3174125411393],[-121.956682360429,38.3181016505877],[-121.963119086782,38.3209842026701],[-121.96475125289,38.3218904719115],[-121.965693728455,38.3225429026926],[-121.96642936513,38.3229778840586],[-121.967372002392,38.3233404582713],[-121.968245744261,38.3235218535812],[-121.969234527979,38.32355835247],[-121.970430294318,38.323540549838],[-121.970445305167,38.3263150740242],[-121.969502852958,38.3263264242569],[-121.968560907399,38.3263725468035],[-121.967677819457,38.326441864465],[-121.96713326163,38.326453304882],[-121.966485719142,38.3263835559426],[-121.96595594489,38.3262558704035],[-121.965249625633,38.326000597312],[-121.964616937687,38.3256641867203],[-121.963969632355,38.3251422688453],[-121.96346948454,38.324666768948],[-121.963042563795,38.3248985079007],[-121.962615629575,38.3251534318029],[-121.961614667396,38.3254893211516],[-121.9610111199,38.325732586096],[-121.960701989847,38.3258484190773],[-121.960172088933,38.325975768476],[-121.961186347974,38.3282832649086],[-121.961259718773,38.3286890697625],[-121.961230024063,38.3291644030382],[-121.961317706821,38.3303238049174],[-121.961376336267,38.3307759788208],[-121.961508523361,38.3312977419706],[-121.962551222165,38.3353698657885]]]},"properties":{"NeighborhoodName":"Foxboro Friends"}},{"type":"Feature","geometry":{"type":"Polygon","coordinates":[[[-121.953312222843,38.3353476416674],[-121.943056442909,38.3353232775683],[-121.943056177007,38.3171100590326],[-121.943109772949,38.315643102963],[-121.94495375268,38.3156456963729],[-121.946001468436,38.3156471699012],[-121.947049184192,38.3156602182366],[-121.94753113344,38.3156648774255],[-121.948096899948,38.315670858779],[-121.948756960874,38.3156785781742],[-121.9494170218,38.3156867986223],[-121.950052636026,38.3156929433474],[-121.950698727409,38.3157004993668],[-121.951652148747,38.3157142001089],[-121.95195249393,38.315719680405],[-121.952169021853,38.3156867986223],[-121.952172242958,38.3170678206566],[-121.952172514239,38.3170842612366],[-121.952248075863,38.3172923100642],[-121.952149689678,38.3224837340478],[-121.952170349133,38.3259799742694],[-121.952187974977,38.3271431374037],[-121.951955818866,38.3277676081852],[-121.951570818902,38.3283890447828],[-121.951478487362,38.3288962315755],[-121.951547196803,38.329312909914],[-121.951877105786,38.3298595766476],[-121.952069131458,38.3302614659158],[-121.952113566624,38.3309435142812],[-121.952144819012,38.3314219417797],[-121.952134739016,38.3318576879796],[-121.952139939364,38.3324996930826],[-121.952204510266,38.3328980514722],[-121.952379094248,38.3332720386551],[-121.952601953694,38.3335902994961],[-121.952999586666,38.3340131045188],[-121.95323449252,38.3343551127938],[-121.953300622898,38.334644816173],[-121.953312222843,38.3353476416674]]]},"properties":{"NeighborhoodName":"SouthTown Collaborative"}},{"type":"Feature","geometry":{"type":"Polygon","coordinates":[[[-121.970445304269,38.3263150740242],[-121.970494396301,38.3353879036807],[-121.962551222165,38.3353698657885],[-121.961508522462,38.3312977419706],[-121.961376336267,38.3307759795254],[-121.961317706821,38.3303238049174],[-121.961230024063,38.3291644030382],[-121.961259717875,38.3286890704672],[-121.961186347974,38.3282832649086],[-121.960172088933,38.325975768476],[-121.960701989847,38.3258484190773],[-121.961011120798,38.3257325868007],[-121.961614668295,38.3254893211516],[-121.962615628676,38.3251534318029],[-121.963042563795,38.3248985079007],[-121.96346948454,38.324666768948],[-121.963969631456,38.3251422688453],[-121.964616937687,38.3256641867203],[-121.965249625633,38.326000597312],[-121.965955945788,38.3262558696988],[-121.966485719142,38.3263835559426],[-121.96713326163,38.326453304882],[-121.967677819457,38.326441864465],[-121.968560907399,38.3263725468035],[-121.969502853856,38.3263264242569],[-121.970445304269,38.3263150740242]]]},"properties":{"NeighborhoodName":"Pheasant Country Community Park Group"}},{"type":"Feature","geometry":{"type":"Polygon","coordinates":[[[-121.935763737074,38.3697971973146],[-121.935703647866,38.3695871845471],[-121.935776894698,38.3693940046888],[-121.935957822583,38.369251334138],[-121.936203082418,38.3691933579915],[-121.936464918866,38.3692160513582],[-121.936562840622,38.369224538215],[-121.936875738208,38.3689644504669],[-121.937117681464,38.3688810915835],[-121.937720645954,38.36856033126],[-121.937906519962,38.3684393793179],[-121.938141867787,38.3683640694096],[-121.938626834971,38.3680175915481],[-121.938704591346,38.3679403471494],[-121.939014182234,38.3676327907502],[-121.939135382033,38.3676213279589],[-121.939256581833,38.3676098644616],[-121.939860348519,38.3671136354173],[-121.939840644871,38.3669566160795],[-121.939910735921,38.3667926630054],[-121.940060157194,38.3666658290808],[-121.940262552119,38.3665984896271],[-121.940482218054,38.3666025219104],[-121.940768675527,38.3664731569942],[-121.940878721844,38.3663234268041],[-121.941057156005,38.3662224791036],[-121.941272504637,38.3661881217494],[-121.941509224189,38.3662351430033],[-121.941571032772,38.3662606412445],[-121.941756391148,38.3663371070366],[-121.941849047878,38.3663753303939],[-121.941946170133,38.3662293956497],[-121.942043293287,38.3660834627244],[-121.942135380485,38.3659450919537],[-121.942140414644,38.3659375280961],[-121.94217278813,38.3658888831546],[-121.942180941239,38.3657062472208],[-121.942194011727,38.3654134527584],[-121.942399794199,38.3653835492715],[-121.942605577569,38.3653536457723],[-121.942759891965,38.3653312216615],[-121.942778434989,38.3653291741412],[-121.942782489086,38.3653287254758],[-121.942797095693,38.3653279450656],[-121.942819914698,38.3653280154997],[-121.942842639379,38.3653296495716],[-121.942865096363,38.3653328374204],[-121.942887115867,38.3653375543939],[-121.942908529009,38.3653437652747],[-121.942929870285,38.365351710243],[-121.94294955417,38.3653608004687],[-121.942968156482,38.3653712064023],[-121.942985536188,38.3653828491568],[-121.942995347588,38.3653904137767],[-121.943078519905,38.3654579931256],[-121.943163049577,38.3655266747026],[-121.943224139507,38.3655763115968],[-121.94331568592,38.3656506946795],[-121.943149940462,38.3658997503521],[-121.943040664001,38.3660639512615],[-121.94294354444,38.366209885635],[-121.942911170954,38.3662585303607],[-121.942814050495,38.3664044657504],[-121.942716929139,38.3665503994372],[-121.942619806883,38.3666963342384],[-121.942522685526,38.3668422694496],[-121.942425563271,38.366988202958],[-121.942328441016,38.3671341375807],[-121.942197797227,38.3673304379827],[-121.94229855766,38.3674123061959],[-121.942048079511,38.3676033854296],[-121.94185002794,38.3676397642114],[-121.941674692966,38.3677735184624],[-121.941524404819,38.367888166477],[-121.941374115774,38.368002812197],[-121.941223826728,38.3681174584398],[-121.941073535886,38.368232104501],[-121.941037466731,38.3682596198948],[-121.940859233792,38.3683668281989],[-121.940402324588,38.3684645626598],[-121.940029208436,38.3684643696787],[-121.940001627462,38.3684884535832],[-121.939897132733,38.3684927111406],[-121.939877864769,38.368499137974],[-121.939742983627,38.3685441293136],[-121.939677454222,38.3685659882768],[-121.939596579795,38.3686252826886],[-121.93955601008,38.3686550277752],[-121.939430673539,38.3687469203161],[-121.939264766384,38.3688685584435],[-121.939180535851,38.3689303127493],[-121.939119692957,38.3689884792691],[-121.938986665938,38.3691156542326],[-121.938853636224,38.3692428303812],[-121.938720599324,38.3693700133493],[-121.938669602864,38.3694187644134],[-121.938595867348,38.3695120061288],[-121.938476047361,38.3696635242765],[-121.93835437864,38.369817377558],[-121.938225343735,38.3699805441241],[-121.938204888197,38.3700064115054],[-121.93803680712,38.3701346171758],[-121.937911560409,38.3702301504447],[-121.9377059046,38.370387014779],[-121.937440508129,38.3704973786769],[-121.937224618712,38.3705871553037],[-121.937024152469,38.370670517152],[-121.936869649427,38.3707929887405],[-121.936749878847,38.3708879281304],[-121.936595035343,38.3710106690926],[-121.936287801634,38.371254203048],[-121.936118148505,38.3712433542615],[-121.935820596838,38.3712243245114],[-121.935679885631,38.370954926944],[-121.935712264507,38.3705267771873],[-121.935879695204,38.3703568823392],[-121.9361771247,38.3702332014447],[-121.936118144013,38.3701709946853],[-121.936013785828,38.370060926798],[-121.935909468966,38.3699509031139],[-121.935763737074,38.3697971973146]]]},"properties":{"NeighborhoodName":"Golf Course Estates Neighborhood Group"}},{"type":"Feature","geometry":{"type":"Polygon","coordinates":[[[-121.983476263085,38.3727807436313],[-121.982870212882,38.3728561975439],[-121.982481963711,38.373225802121],[-121.981112782098,38.3721686356646],[-121.979214109201,38.3720237971877],[-121.97905209265,38.3719755739731],[-121.979257082808,38.3710243695676],[-121.977344047647,38.3708649521644],[-121.977326645483,38.3688462474065],[-121.976846200418,38.3670256188152],[-121.976330550377,38.3670964090598],[-121.975663600686,38.3665604635999],[-121.974715142341,38.3629549463751],[-121.974278769522,38.3611092753094],[-121.973297413075,38.3595716239107],[-121.977098304518,38.3562595239093],[-121.979288927187,38.3556374239762],[-121.980038845277,38.3557092552422],[-121.980032700801,38.3570002651593],[-121.981389317678,38.3570321191321],[-121.981557553266,38.3586504614274],[-121.981555997384,38.3601650494833],[-121.980968385102,38.3612735997872],[-121.981912234192,38.3635473264146],[-121.983012732398,38.3646445638082],[-121.98455156265,38.3706948595007],[-121.983618976638,38.3713978345169],[-121.983476263085,38.3727807436313]]]},"properties":{"NeighborhoodName":"Markham Neighborhood Association"}},{"type":"Feature","geometry":{"type":"Polygon","coordinates":[[[-121.947183287154,38.3703568105013],[-121.947563552099,38.3700662294369],[-121.947617559712,38.3701014843347],[-121.947772838899,38.3702028484968],[-121.94793393288,38.3703080086557],[-121.948095026862,38.3704131665489],[-121.94825612264,38.3705183256978],[-121.94841721752,38.3706234846939],[-121.948578313298,38.3707286435373],[-121.948739409975,38.3708338008191],[-121.948900553364,38.3709389896412],[-121.949061604226,38.3710441170374],[-121.949222702699,38.3711492738609],[-121.949443301984,38.3712932717654],[-121.94969291775,38.3714562068165],[-121.949506593685,38.3715988892189],[-121.949356592101,38.3717137551341],[-121.94920657794,38.371828630727],[-121.949056563779,38.3719435061374],[-121.948906547822,38.3720583813654],[-121.948756532762,38.3721732564112],[-121.948606515907,38.3722881305702],[-121.948456499051,38.3724030052512],[-121.948306482195,38.3725178797498],[-121.948283361356,38.3725355844256],[-121.948219392325,38.3725845692879],[-121.948012853471,38.3727429743894],[-121.947275260266,38.3733077664875],[-121.946977718481,38.3735355968385],[-121.946207521821,38.3741253281963],[-121.94620742121,38.3741254077772],[-121.945411026981,38.3747351913646],[-121.945336013163,38.3747926271375],[-121.945110261143,38.3749654771577],[-121.944725904372,38.3752598879502],[-121.944691167418,38.3752864957178],[-121.944586168735,38.3753669232032],[-121.944481170051,38.3754473491907],[-121.944376170469,38.3755277750888],[-121.944271171785,38.3756082016017],[-121.944166172203,38.3756886273209],[-121.944061172621,38.3757690529508],[-121.943956172141,38.3758494798997],[-121.943819885136,38.3759538698672],[-121.943538231853,38.3761696029751],[-121.942962986678,38.3766102074829],[-121.943029039801,38.3758353556821],[-121.943044809726,38.3756814032214],[-121.943057808348,38.3755114155435],[-121.943067875767,38.3753797657891],[-121.943138570485,38.3753133527782],[-121.943178882383,38.3752754820385],[-121.943262069074,38.3751973333893],[-121.943302099799,38.3751597259768],[-121.943402915029,38.3750650161419],[-121.943521936414,38.3749532000092],[-121.943643747967,38.3748387638984],[-121.943744560501,38.3747440543476],[-121.9437889777,38.3747023261322],[-121.943870017417,38.3746261917256],[-121.944191687951,38.3743239928294],[-121.944085395693,38.3742540033496],[-121.944028195467,38.3742163348808],[-121.943972568192,38.3741795051604],[-121.943907931712,38.3741369293999],[-121.943859748775,38.3741050125286],[-121.943752925613,38.3740345854935],[-121.943746925765,38.374030517003],[-121.943634102755,38.3739560214007],[-121.943619301214,38.3739463575804],[-121.943521279746,38.373881526426],[-121.943499036561,38.3738669518032],[-121.943408456736,38.3738070306703],[-121.943365414857,38.3737787243899],[-121.943295629234,38.3737325306124],[-121.943211745452,38.3736772610062],[-121.943182812513,38.3736580382247],[-121.943078121053,38.3735890326574],[-121.9430699913,38.3735835429431],[-121.943024841974,38.3735534850775],[-121.944166401274,38.3726668569364],[-121.945210386466,38.3718681033896],[-121.945675282592,38.3715121323964],[-121.947183287154,38.3703568105013]]]},"properties":{"NeighborhoodName":"Diamond Grove"}},{"type":"Feature","geometry":{"type":"Polygon","coordinates":[[[-121.981637655142,38.3353852331231],[-121.981411364132,38.3353833764161],[-121.98124239462,38.3353813350953],[-121.980942524402,38.3353743423204],[-121.980766509404,38.3353732938269],[-121.980562342102,38.3353742662201],[-121.980381963987,38.33537295208],[-121.98004550898,38.3353708889153],[-121.979865126373,38.3353699919178],[-121.979655961744,38.3353687094861],[-121.979446797115,38.3353674249405],[-121.979237632486,38.3353661418042],[-121.979028467856,38.3353648572586],[-121.978819302329,38.3353635734176],[-121.9786101377,38.3353622874626],[-121.978400973071,38.3353610029169],[-121.978191808442,38.335359716962],[-121.977982643813,38.3353584310069],[-121.977814681313,38.3353573980151],[-121.977672023456,38.3350700615377],[-121.977633001538,38.3349914629068],[-121.977525081533,38.3347740928036],[-121.97743620671,38.3345950812677],[-121.977360029574,38.3344416435635],[-121.977277504044,38.3342754176669],[-121.977118802276,38.3339557547698],[-121.977103781546,38.3339255021741],[-121.97710608303,38.3336935954873],[-121.977108944164,38.333405287039],[-121.977367495473,38.3334068788476],[-121.977576654712,38.3334081655419],[-121.977785813951,38.3334094529408],[-121.97799497319,38.3334107389304],[-121.978204132429,38.3334120256246],[-121.97841329077,38.3334133109095],[-121.978622450009,38.3334145961944],[-121.978831609248,38.3334158807746],[-121.979040768488,38.3334171660594],[-121.979249927727,38.3334184492303],[-121.979459086068,38.3334197338105],[-121.979668245307,38.3334210169813],[-121.979877404546,38.333422300152],[-121.980064749097,38.3334236580159],[-121.98040119512,38.3334257198267],[-121.980581572338,38.3334266161436],[-121.980788918777,38.3334278873353],[-121.980998078016,38.3334291676873],[-121.981207237255,38.333430448744],[-121.981416397392,38.3334317283914],[-121.981659845326,38.3334334590157],[-121.981648700827,38.3344514324468],[-121.981646500852,38.3346164177731],[-121.981637655142,38.3353852331231]]]},"properties":{"NeighborhoodName":"The Hood"}},{"type":"Feature","geometry":{"type":"Polygon","coordinates":[[[-122.015183825479,38.3623286319673],[-122.015046096678,38.3621158941457],[-122.015158926874,38.3618892907866],[-122.015364683295,38.3617805133995],[-122.015367310867,38.3615059182882],[-122.015368293624,38.3614033254819],[-122.015369315009,38.3612965513274],[-122.015371209556,38.3610986095504],[-122.01537131915,38.3610871830567],[-122.015373323292,38.3608778141804],[-122.015373732025,38.3608351488855],[-122.015375794557,38.360619708872],[-122.01537631558,38.3605651794241],[-122.015376771026,38.3603910588045],[-122.015377222878,38.3603413331234],[-122.015378839846,38.3603014428099],[-122.015380159471,38.3600179977299],[-122.015381776438,38.3598398586311],[-122.015383598222,38.359639135435],[-122.016102723861,38.35988071915],[-122.017135147736,38.3601839440807],[-122.017481282988,38.3602627950195],[-122.018074236652,38.3604170113223],[-122.018459640859,38.3604657367196],[-122.019129070798,38.3604898549831],[-122.019128573132,38.3605859574491],[-122.019125978797,38.3610857165321],[-122.019122669404,38.3617234976729],[-122.019121942667,38.3618635317954],[-122.019121372236,38.3619733628012],[-122.018992307686,38.3622881067019],[-122.018462203752,38.3622799557211],[-122.017886731303,38.3623404604606],[-122.01762518052,38.3623385389381],[-122.017356619284,38.3622581603659],[-122.017115957925,38.3622197516978],[-122.016878794605,38.3622664712414],[-122.016727127544,38.3624353672679],[-122.016355264542,38.3627282575968],[-122.016002510503,38.3630060965979],[-122.01570576732,38.3627725397052],[-122.015425183931,38.3627286302067],[-122.015355710922,38.3627177583069],[-122.015359170334,38.3623296737313],[-122.015183825479,38.3623286319673]]]},"properties":{"NeighborhoodName":"Foothill Park"}},{"type":"Feature","geometry":{"type":"Polygon","coordinates":[[[-121.94312035245,38.3588446797956],[-121.943142937863,38.359723129753],[-121.943149033794,38.3597706907436],[-121.943226756895,38.3606527980678],[-121.943254737226,38.3608933720307],[-121.943342701494,38.3611392986612],[-121.943081186156,38.361197517903],[-121.943100449226,38.3620131560358],[-121.943118919904,38.3628932643549],[-121.945124236951,38.3630277197731],[-121.945110825865,38.3630468388904],[-121.943395187474,38.3640155985576],[-121.943278145656,38.3640538362331],[-121.940255539859,38.364836175778],[-121.937278775706,38.3656869507125],[-121.936986170996,38.3657481297249],[-121.936825238456,38.3657596007359],[-121.934655087764,38.3656219480996],[-121.934656672385,38.3655908805706],[-121.934312496298,38.3655663133426],[-121.934132056678,38.3655338119572],[-121.934141688336,38.3649032821786],[-121.934177044743,38.3648851194006],[-121.934185213251,38.3644624050814],[-121.934197344174,38.3636655789721],[-121.93416076879,38.3636426361884],[-121.934170643883,38.3627049403267],[-121.934209658041,38.3626667020028],[-121.934221605854,38.3622076478648],[-121.934141139584,38.3621617614301],[-121.934160646826,38.3612994733444],[-121.934167474148,38.3609614380913],[-121.934172350877,38.360718617837],[-121.934247940419,38.3606765543971],[-121.934244282831,38.3602127077169],[-121.934205269001,38.360166820146],[-121.934205269001,38.3595741011486],[-121.934254036289,38.3595511574212],[-121.934266959645,38.3590856780413],[-121.934220630558,38.3590503057277],[-121.934224166182,38.3587159886347],[-121.934274152857,38.3586920882073],[-121.934277566518,38.3583047104497],[-121.934316580512,38.3582454372438],[-121.934367786328,38.3582110205047],[-121.934422649649,38.3582005042828],[-121.934903008907,38.3582349210268],[-121.934949337954,38.3582024163174],[-121.936191688704,38.358262071978],[-121.937659588241,38.35837488216],[-121.937708355693,38.3584169469374],[-121.938266742837,38.3584570997266],[-121.938742225388,38.3584788968669],[-121.939322557913,38.3585171375313],[-121.939366448554,38.3584798528484],[-121.942406000938,38.3586874037895],[-121.942437699798,38.3587285123749],[-121.943031138522,38.3587684019755],[-121.943066799714,38.3587770060795],[-121.943090878634,38.3587906292648],[-121.94310764244,38.3588097495091],[-121.943118919906,38.3588317377875],[-121.94312035245,38.3588446797956]]]},"properties":{"NeighborhoodName":"Stonegate Neighborhood Association"}},{"type":"Feature","geometry":{"type":"Polygon","coordinates":[[[-121.968573267832,38.368241951444],[-121.969562088561,38.3685082134779],[-121.970045008106,38.3689886392372],[-121.970104138627,38.3690416904326],[-121.970598152775,38.3694303490425],[-121.971030476116,38.3697236099558],[-121.975957450231,38.3729843847787],[-121.976409524332,38.3732827927846],[-121.976658238318,38.3734854265869],[-121.976797225498,38.3736326224025],[-121.976919144045,38.3737855528521],[-121.977050816213,38.374005389803],[-121.977136159212,38.3741984634899],[-121.977192607483,38.3743616199322],[-121.977252347779,38.3745393997814],[-121.977290142386,38.3746837261183],[-121.977320621982,38.3748567261253],[-121.977363415526,38.3750311594594],[-121.977421936436,38.3753213392331],[-121.977518983813,38.3757741930303],[-121.977536052118,38.3759252073871],[-121.977648217371,38.3765235270102],[-121.977723806749,38.376863783252],[-121.97791619451,38.3778429668558],[-121.977935701262,38.3779576580169],[-121.977964352146,38.3781340910263],[-121.977997270188,38.3784380210731],[-121.978016655221,38.3789145579165],[-121.978001781272,38.379448627159],[-121.97797008229,38.3799742820276],[-121.977896565468,38.3809058286493],[-121.977810003328,38.381938190432],[-121.977794519563,38.3826132031563],[-121.97776525919,38.3829610761513],[-121.977726245687,38.3833013021157],[-121.977677477745,38.3839244083569],[-121.977619200598,38.3848795091878],[-121.977570433311,38.3854051245279],[-121.977550926232,38.3857472503671],[-121.977535564593,38.3859188860258],[-121.97755629065,38.3860933882239],[-121.977479238204,38.3867434196724],[-121.977434615866,38.387326933069],[-121.977412670504,38.3877531452631],[-121.977427300773,38.3879806803608],[-121.977345981087,38.3887799622513],[-121.977250275223,38.3901168571478],[-121.977223453133,38.3904646941809],[-121.977208578857,38.3907592076713],[-121.977143230462,38.3916394919435],[-121.97708227127,38.3925893308368],[-121.97706764092,38.3927250210155],[-121.977073493028,38.3933898995279],[-121.977049109547,38.393697587715],[-121.977006925492,38.3945552855093],[-121.976980103401,38.3945495522225],[-121.976977665119,38.3948725240185],[-121.974879933743,38.3948715685176],[-121.974879933743,38.3948524577932],[-121.971724680563,38.3948641153672],[-121.971621476457,38.394868319677],[-121.971624524433,38.3949027189586],[-121.971575025611,38.3949314805559],[-121.971544545852,38.3949897681828],[-121.971542107487,38.3950490112772],[-121.971572952891,38.3951077765743],[-121.971640008116,38.3951517310586],[-121.971698529025,38.3951679751011],[-121.97172778948,38.3951842191439],[-121.971735958152,38.3952030431086],[-121.971740834799,38.3952393533111],[-121.971737664983,38.3956237623798],[-121.971686459085,38.3959581956648],[-121.971674023418,38.3960340640977],[-121.971677437243,38.3963308481497],[-121.971714012954,38.3966251465746],[-121.971704259333,38.3970016175764],[-121.971704259333,38.3970704140773],[-121.971692067429,38.3975382287015],[-121.971701820887,38.3976032027047],[-121.971690604525,38.3982999496963],[-121.971700357983,38.3984948695412],[-121.971700357983,38.3989802557046],[-121.97167109761,38.3990987353373],[-121.971685727633,38.4001230027201],[-121.971666220718,38.4002185491978],[-121.971666220718,38.4004707916181],[-121.971422383624,38.4006236652633],[-121.965931413917,38.400600352035],[-121.966073083469,38.4001562528677],[-121.966141357672,38.4002346009873],[-121.966236454293,38.4002670867525],[-121.966326674021,38.4002575320719],[-121.966390071659,38.4002116697672],[-121.966424208924,38.4001562528677],[-121.96641201702,38.4000759936709],[-121.966360811286,38.4000282203215],[-121.966326674021,38.3999880906632],[-121.966325210953,38.399871332322],[-121.966361786501,38.3995732251646],[-121.966369101676,38.3995369172028],[-121.966430061031,38.3993095139867],[-121.96678460031,38.3981971388522],[-121.966867504863,38.3979410665936],[-121.967013807218,38.3975149144789],[-121.967087324039,38.3972859760495],[-121.967149258773,38.3970575148236],[-121.967179494524,38.3968382255372],[-121.967220093386,38.3966243821416],[-121.96722253175,38.3963702154026],[-121.967198148106,38.3962278433318],[-121.967096711771,38.395996512112],[-121.966741197441,38.3955818148821],[-121.966199879073,38.3959028710927],[-121.965829246376,38.3960825088754],[-121.965346448753,38.3962583242819],[-121.964956309141,38.3963538761882],[-121.964714910329,38.396416175667],[-121.964334524174,38.3964543964126],[-121.963222626738,38.3965040831463],[-121.963235306331,38.3957775064982],[-121.963545467198,38.3947749637555],[-121.96301877918,38.3939264421275],[-121.963346495878,38.3931765241452],[-121.964351105609,38.3914488541517],[-121.96541911265,38.387106563455],[-121.964813420611,38.3851073403243],[-121.964403774738,38.3822632260727],[-121.964598843889,38.3818044868071],[-121.967719960787,38.3775533712667],[-121.967916004989,38.37195849052],[-121.968101808863,38.3697974984974],[-121.968573267832,38.368241951444]]]},"properties":{"NeighborhoodName":"Browns Valley Neighborhood Association"}},{"type":"Feature","geometry":{"type":"Polygon","coordinates":[[[-121.945958560549,38.4074185189304],[-121.93900773785,38.4068387025495],[-121.941026953467,38.4044743908984],[-121.94126676733,38.4043217163565],[-121.942127512661,38.4033051520964],[-121.946451782141,38.4033369198437],[-121.946623687353,38.4033397861388],[-121.94692610643,38.4033410759844],[-121.945958560549,38.4074185189304]]]},"properties":{"NeighborhoodName":"Avondale at North Village"}},{"type":"Feature","geometry":{"type":"Polygon","coordinates":[[[-121.947199478396,38.4022068672684],[-121.946921382074,38.4021665477097],[-121.946704366988,38.4021555601574],[-121.944286477525,38.4021384100215],[-121.943863420035,38.4018727972888],[-121.944071900722,38.401678842027],[-121.944080435079,38.4015875491402],[-121.943972537107,38.4013958384398],[-121.943943276653,38.4012439217801],[-121.943974122056,38.4010732779141],[-121.944044834869,38.4009156278587],[-121.945154781712,38.3996086479327],[-121.945327418427,38.3994055617959],[-121.947150223338,38.3972634487721],[-121.947405276998,38.397440790028],[-121.947472332224,38.3974923871445],[-121.947517442088,38.3975392066399],[-121.947547921724,38.3976013141839],[-121.947619853699,38.3977217070349],[-121.947851255188,38.3979236035126],[-121.948088996432,38.3980057761141],[-121.94758205899,38.4004352709725],[-121.947199478396,38.4022068672684]]]},"properties":{"NeighborhoodName":"Haven North Village"}},{"type":"Feature","geometry":{"type":"Polygon","coordinates":[[[-121.979280560278,38.3387255389646],[-121.979009901476,38.3388249917971],[-121.978848969191,38.339071710301],[-121.978756310665,38.3391386497821],[-121.978507596807,38.339180725432],[-121.978282047805,38.3392627734428],[-121.977987004235,38.339415776772],[-121.977677331601,38.339459765231],[-121.977428617743,38.3394578522609],[-121.977148204135,38.3394272517797],[-121.976933628055,38.3393584002972],[-121.976799517668,38.3392493861381],[-121.976441076395,38.3388534886005],[-121.976372802637,38.338796112385],[-121.976227231543,38.3387232440819],[-121.975566432617,38.3385186004258],[-121.975383554489,38.3384879995477],[-121.975207992242,38.3384918241298],[-121.975108018734,38.3385013869931],[-121.974859304876,38.3385740645723],[-121.974639851842,38.3386161405502],[-121.974374069096,38.338656304217],[-121.974265561592,38.3387209491991],[-121.974031477697,38.3389581052555],[-121.973919313153,38.3390307823765],[-121.973753503016,38.3390460827026],[-121.973377993752,38.3390078315292],[-121.973070759145,38.3389619305173],[-121.972856183065,38.3389581052555],[-121.972709879845,38.3389963564551],[-121.972612345263,38.3390805086004],[-121.972583084439,38.3391684851942],[-121.972544070606,38.3392641121731],[-121.972446536024,38.3393635642663],[-121.972266096823,38.3394094650238],[-121.971944231355,38.3394209407371],[-121.971744285237,38.3394438907489],[-121.971500447435,38.3395777682569],[-121.971344392104,38.3397498963192],[-121.9711005552,38.3400673747987],[-121.970738456885,38.3404056991154],[-121.970374163986,38.3405103128243],[-121.970252001192,38.3402530804666],[-121.970198357397,38.3401115538051],[-121.970132520768,38.33987248927],[-121.970100821917,38.3396429859541],[-121.970093507834,38.3395110208307],[-121.97009850606,38.3393127862773],[-121.970113136023,38.3391597834351],[-121.970157026809,38.3389666160928],[-121.970217986484,38.3387065091214],[-121.970264315298,38.3385420291482],[-121.970334905812,38.3382859368978],[-121.970433660306,38.3379206359305],[-121.970567405079,38.3373584319824],[-121.970604833385,38.3370555250785],[-121.970627693712,38.3368205139951],[-121.970639885647,38.3366933252814],[-121.970642323675,38.3366359473551],[-121.970654272167,38.3362745585965],[-121.970673046956,38.3356869998728],[-121.970704745807,38.3356372713199],[-121.970765705483,38.3355971059794],[-121.971055872099,38.3355837172928],[-121.97112170783,38.3355856296605],[-121.972533037498,38.3355601917839],[-121.972789066337,38.3355448907217],[-121.9728939159,38.3355391529107],[-121.973771729833,38.3355448907217],[-121.977694125609,38.3355898379012],[-121.979280560278,38.3387255389646]]]},"properties":{"NeighborhoodName":"Southwood Meadows Association"}},{"type":"Feature","geometry":{"type":"Polygon","coordinates":[[[-121.953335367038,38.33532362002],[-121.953335234986,38.3376714480751],[-121.953241180477,38.3452845613293],[-121.952304845795,38.3452233652763],[-121.951524566445,38.3448867853563],[-121.950900343323,38.344580801485],[-121.950432176432,38.3444890064943],[-121.949807952412,38.3444431089554],[-121.948832603897,38.3444278097692],[-121.946413740874,38.3444278097692],[-121.945555434756,38.3444125105799],[-121.945243321399,38.3443666129924],[-121.945087266966,38.3441218239591],[-121.945155538797,38.3402509984263],[-121.945141773696,38.3402513531385],[-121.945175593817,38.33532362002],[-121.953335367038,38.33532362002]],[[-121.948613376199,38.3381973295126],[-121.947743038763,38.3385200654818],[-121.948039382308,38.3389415400375],[-121.948051004365,38.3394735835444],[-121.945828143302,38.3395196630061],[-121.945819560665,38.3402338872803],[-121.947530513206,38.3401897978121],[-121.94896915307,38.3401438972394],[-121.948974304544,38.3397152055542],[-121.948976878316,38.3393402051679],[-121.948958658942,38.3389844007417],[-121.948910535425,38.3387299954494],[-121.948613376199,38.3381973295126]]]},"properties":{"NeighborhoodName":"Woodridge Parkside Neighbors"}},{"type":"Feature","geometry":{"type":"Polygon","coordinates":[[[-122.011786977015,38.371966146991],[-122.009689835571,38.371966146991],[-122.009689942346,38.379364458094],[-122.00444698196,38.3793643889462],[-122.00444698196,38.3763504226688],[-122.002531326929,38.3763504226688],[-122.002531338793,38.3771724447832],[-121.999663800837,38.377172406963],[-121.999663737563,38.372788218916],[-121.998155557627,38.3727881990233],[-121.998155502263,38.3689518033636],[-122.011786934688,38.3690330996281],[-122.011786977015,38.371966146991]]]},"properties":{"NeighborhoodName":"The Roots @ North Orchard and Fruitvale"}},{"type":"Feature","geometry":{"type":"Polygon","coordinates":[[[-122.009510359976,38.3552567315512],[-122.010524723492,38.3570158592396],[-122.011275742016,38.3582701672288],[-122.011548838828,38.358813184567],[-122.011636620273,38.3590808671725],[-122.011675634104,38.3594403254518],[-122.011871678961,38.3595825789219],[-122.012188667477,38.3596552346871],[-122.012408120764,38.3597928990556],[-122.012764123111,38.3602326571739],[-122.013017713989,38.3606074055045],[-122.01341273033,38.3610739263594],[-122.013520018691,38.3612230595032],[-122.013895527953,38.3617469347714],[-122.0140467072,38.3618348842925],[-122.01412473486,38.3619266573868],[-122.01426616065,38.3622172721398],[-122.014358818497,38.3623090449098],[-122.014588025568,38.3623625788221],[-122.0148952603,38.362469646913],[-122.015012302118,38.3625499478452],[-122.015124467207,38.3626684871599],[-122.015353674197,38.3629361557666],[-122.01555849746,38.3630738136391],[-122.015753567184,38.3631502899649],[-122.015982774133,38.3632076473168],[-122.016075432184,38.3631617613876],[-122.016387543809,38.3629246841798],[-122.016528969434,38.3627793784976],[-122.016675271625,38.3626990776915],[-122.016904478696,38.3626226010173],[-122.016992260469,38.3625690671689],[-122.017065411237,38.3624964139431],[-122.017250727586,38.3625346524854],[-122.01757259234,38.3625652430736],[-122.018065143584,38.3625767148457],[-122.018567448122,38.3625843623932],[-122.018962464463,38.3625958340339],[-122.019069752741,38.3625920100683],[-122.019108766735,38.3626799586589],[-122.019108766735,38.3634256043771],[-122.019095599535,38.3672561911921],[-122.02027577142,38.369856194033],[-122.019934399341,38.3700626607453],[-122.019349190414,38.3701467766919],[-122.019290669341,38.3698867816552],[-122.015750153769,38.3686938512159],[-122.015525823262,38.3685791454185],[-122.01506740912,38.3684873803416],[-122.014696777078,38.3683726739603],[-122.013061116777,38.3674229000275],[-122.012973335986,38.3672164257841],[-122.012670978474,38.367071128589],[-122.012378372783,38.3670175979024],[-122.011949219341,38.3670405392633],[-122.011705382574,38.3671476008198],[-122.011422531323,38.3670787755333],[-122.011129927596,38.3667270029356],[-122.010895843305,38.3663981696794],[-122.010661759013,38.3659622725477],[-122.010519358337,38.3657481462832],[-122.010236507085,38.3656793201794],[-122.009924396443,38.3656946146181],[-122.009583024446,38.3653734243092],[-122.009261159365,38.365006348072],[-122.008812499007,38.3646851547088],[-122.008539400231,38.3644786729119],[-122.008500386401,38.3642416000173],[-122.008617429201,38.3641115921369],[-122.009095348949,38.3641574772072],[-122.009544009306,38.3641192399073],[-122.009865874388,38.3640045263462],[-122.010099958679,38.3636665038536],[-122.01020724704,38.3634447234697],[-122.010499851422,38.3631541136446],[-122.010616892912,38.3630088090647],[-122.010470590722,38.3627487881284],[-122.010325263582,38.3624734708854],[-122.010227729006,38.3621675617235],[-122.010178961391,38.3618998902746],[-122.0100033985,38.3617545826636],[-122.00995463154,38.3614639663097],[-122.0100033985,38.3611198132271],[-122.0100033985,38.3608827293316],[-122.0100033985,38.3607680111548],[-122.010159454476,38.3606227012717],[-122.010256990361,38.3604926868915],[-122.010159454476,38.3601179377102],[-122.00999364537,38.35990379467],[-122.009827836919,38.3597967226556],[-122.009730301033,38.3596808553937],[-122.009705917226,38.3595087749467],[-122.009013419775,38.3589925316652],[-122.008740321981,38.3587439685536],[-122.008045386574,38.3580651965583],[-122.007957605783,38.357881639885],[-122.007947851344,38.3575757115755],[-122.007762535977,38.3572238920236],[-122.007651345121,38.3570441574762],[-122.007524549845,38.3566961598753],[-122.007485536015,38.3565317206493],[-122.007461152207,38.3564361162645],[-122.007514796387,38.3563175670012],[-122.007651345121,38.3562296106809],[-122.007740589797,38.3560624935062],[-122.007740589797,38.3558330416944],[-122.007623547652,38.3556265346474],[-122.009510359976,38.3552567315512]]]},"properties":{"NeighborhoodName":"Under The Oaks"}},{"type":"Feature","geometry":{"type":"Polygon","coordinates":[[[-121.933625415636,38.3441053576089],[-121.919037125057,38.3443983387221],[-121.919037125057,38.3401373754517],[-121.921570104764,38.3372356459117],[-121.93356689489,38.3370367359505],[-121.933625415636,38.3441053576089]]]},"properties":{"NeighborhoodName":"Roberts' Ranch Neighborhood Association"}},{"type":"Feature","geometry":{"type":"Polygon","coordinates":[[[-121.97027560714,38.3233691595404],[-121.968851598079,38.3233997669297],[-121.968324909734,38.3233729854487],[-121.967432465911,38.3232161225285],[-121.966944791068,38.3230324777906],[-121.965856302062,38.3224715931598],[-121.965353997524,38.3221540371707],[-121.964563965169,38.3216796134812],[-121.963911944452,38.3213352718531],[-121.962912211941,38.3207996261267],[-121.962444044668,38.3205738885353],[-121.961966123938,38.3203328457111],[-121.961401396814,38.3200940980684],[-121.963456456445,38.3169202846221],[-121.963863665017,38.3156507200845],[-121.964522024876,38.3156392412647],[-121.964995069041,38.3159109098597],[-121.965355947953,38.3159912625431],[-121.965936280643,38.3159989151383],[-121.966999410627,38.3160356475325],[-121.967287138771,38.3160509529695],[-121.967994266573,38.3162575730992],[-121.970250735643,38.3207609829308],[-121.970292675609,38.3233071795796],[-121.97027560714,38.3233691595404]]]},"properties":{"NeighborhoodName":"Foxboro South"}},{"type":"Feature","geometry":{"type":"Polygon","coordinates":[[[-122.021922017459,38.3241129317651],[-122.019854277908,38.3242965742795],[-122.017981608817,38.3244036982653],[-122.014099721575,38.3243730914283],[-122.010471423575,38.324357788005],[-122.007567810517,38.32417797164],[-122.00629985645,38.3240096328389],[-122.004324777529,38.323737229387],[-122.0041414103,38.3228274244766],[-122.003956094279,38.3225596076209],[-122.003614721627,38.3222229218543],[-122.003195322625,38.3219704066958],[-122.002910519961,38.3218648093035],[-122.002247282882,38.3218265494153],[-122.002110733821,38.3217041171236],[-122.00178886874,38.3208700430788],[-122.001691334164,38.3204109152462],[-122.001554785103,38.3196380440338],[-122.000900327413,38.3157827455195],[-121.999086665285,38.3157873369872],[-121.999048870269,38.3157683966364],[-121.99897700568,38.3156975122039],[-121.998935473602,38.3155898785208],[-121.998707437537,38.3151344085904],[-121.998636440796,38.3150317940409],[-121.99861264253,38.3149973973835],[-121.998496742736,38.3149333929265],[-121.998391969192,38.3148808867557],[-121.998235734312,38.3148329835935],[-121.998030667286,38.3147910519574],[-121.997752695821,38.3147917556797],[-121.997681067339,38.3147981180583],[-121.997548585706,38.3148098856986],[-121.997377755515,38.3147927047367],[-121.997312614991,38.3147342929546],[-121.997293109061,38.3146193820452],[-121.997266626372,38.3145507490473],[-121.997239460202,38.3128521275814],[-121.997335519574,38.312394135264],[-121.997390106857,38.3086379838669],[-122.000969636914,38.3087298242678],[-122.01251568097,38.3087005914488],[-122.015632427974,38.308780558111],[-122.017431572617,38.315682450829],[-122.021047834866,38.318003466693],[-122.024848716457,38.3194820598612],[-122.024894670865,38.3223551691335],[-122.024885742566,38.3229694225487],[-122.024091254002,38.3236103056764],[-122.023213115688,38.3239981863047],[-122.021922017459,38.3241129317651]]]},"properties":{"NeighborhoodName":"Lagoon Valley"}},{"type":"Feature","geometry":{"type":"Polygon","coordinates":[[[-121.948957782335,38.3401348875978],[-121.945807405905,38.3402343384956],[-121.945826912822,38.3395075796009],[-121.948060461486,38.3394846289045],[-121.948051465757,38.33894106244],[-121.947738596917,38.3385207050724],[-121.948626163858,38.3382070451167],[-121.948882615804,38.3386572145612],[-121.9489898042,38.3389418791959],[-121.948997903267,38.339431265077],[-121.948963131803,38.339935590823],[-121.948957782335,38.3401348875978]]]},"properties":{"NeighborhoodName":"Carlton Community Watch"}},{"type":"Feature","geometry":{"type":"Polygon","coordinates":[[[-121.979296659748,38.3427078141841],[-121.978971543404,38.3428863093136],[-121.978624752638,38.3431668005147],[-121.978321310717,38.3436087848501],[-121.977996194374,38.344263256316],[-121.977692753763,38.3445777408148],[-121.977096706806,38.3449347210333],[-121.976782427347,38.3445352428783],[-121.976478985426,38.3442207584518],[-121.976500660504,38.3439317714407],[-121.975850427162,38.3438977731498],[-121.974268194946,38.3444417476127],[-121.97452828802,38.344807228291],[-121.973617962259,38.3451642076352],[-121.970952010207,38.3413053379177],[-121.971114568052,38.3411268386357],[-121.971060381667,38.3409058397468],[-121.970941172668,38.3407358397476],[-121.970962847746,38.3406338395567],[-121.971602242894,38.339817832345],[-121.971808149584,38.3396478303063],[-121.972230800503,38.3395968299764],[-121.972566753731,38.3395968299764],[-121.972718474036,38.339477827355],[-121.972848520573,38.3392058223168],[-121.973184473801,38.3392058223168],[-121.973943079257,38.3392993240836],[-121.974279032485,38.339103819458],[-121.974669172097,38.3388658134273],[-121.975189358246,38.338755311132],[-121.975644521127,38.3388063120543],[-121.976316427582,38.3390953195129],[-121.976782427347,38.3395968299764],[-121.978007031913,38.3396478303063],[-121.978776473598,38.3393928262434],[-121.979166613865,38.3399283340469],[-121.979166613865,38.3424698199938],[-121.979296659748,38.3427078141841]]]},"properties":{"NeighborhoodName":"Fairmont Neighbors"}}]}