{
  "type": "FeatureCollection",
  "features": [
    {
      "type": "Feature",
      "properties": {
        "OBJECTID": 401998,
        "APN": "0133020600",
        "govOwn": "NO",
        "areaAcres": 4.87,
        "parcelUse": "VACANT INDUSTRIAL LAND",
        "subdiv": "",
        "yearBuilt": 0,
        "structDesc": "",
        "siteNumb": "3355",
        "siteStreet": "COTTING LANE",
        "siteAddr": "3355 COTTING LANE",
        "siteCity": "VACAVILLE",
        "siteState": "CA",
        "siteZip": "95688",
        "census": "2529.040",
        "supDist": "4th Supervisorial District",
        "senDist": "FIFTH SENATE DISTRICT",
        "congDist": "3rd Congressional DISTRIC",
        "commColl": "SOLANO COM COLLEGE DISTRICT",
        "boardEdu": "BOARD OF ED, SECOND DISTRICT",
        "assembDist": "11 th Assembly District",
        "genPlan": "Incorporated Area",
        "genPlanDes": ""
      },
      "geometry": {
        "type": "Polygon",
        "coordinates": [
          [
            [
              -121.9524078,
              38.3986991
            ],
            [
              -121.9524061,
              38.3983325
            ],
            [
              -121.9524032,
              38.3976295
            ],
            [
              -121.9523991,
              38.3968267
            ],
            [
              -121.95251,
              38.396827
            ],
            [
              -121.9534772,
              38.3968299
            ],
            [
              -121.9534793,
              38.3972717
            ],
            [
              -121.9534822,
              38.3979006
            ],
            [
              -121.9534908,
              38.3987032
            ],
            [
              -121.9524078,
              38.3986991
            ]
          ]
        ]
      }
    },
    {
      "type": "Feature",
      "properties": {
        "OBJECTID": 406284,
        "APN": "0123441120",
        "govOwn": "NO",
        "areaAcres": 1.15,
        "parcelUse": "VACANT RESIDENTIAL LAND < 1 AC",
        "subdiv": "NORTH VINE STREET ESTATES",
        "yearBuilt": 0,
        "structDesc": "",
        "siteNumb": "2060",
        "siteStreet": "PINECREST COURT",
        "siteAddr": "2060 PINECREST COURT",
        "siteCity": "VACAVILLE",
        "siteState": "CA",
        "siteZip": "95688",
        "census": "2532.020",
        "supDist": "4th Supervisorial District",
        "senDist": "FIFTH SENATE DISTRICT",
        "congDist": "3rd Congressional DISTRIC",
        "commColl": "SOLANO COM COLLEGE DISTRICT",
        "boardEdu": "BOARD OF ED, SECOND DISTRICT",
        "assembDist": "11 th Assembly District",
        "genPlan": "Incorporated Area",
        "genPlanDes": ""
      },
      "geometry": {
        "type": "Polygon",
        "coordinates": [
          [
            [
              -121.9928294,
              38.3795583
            ],
            [
              -121.9930873,
              38.3794235
            ],
            [
              -121.9934467,
              38.380257
            ],
            [
              -121.9933694,
              38.3802846
            ],
            [
              -121.9932955,
              38.3803173
            ],
            [
              -121.9932418,
              38.3803746
            ],
            [
              -121.9931403,
              38.380403
            ],
            [
              -121.9931174,
              38.380412
            ],
            [
              -121.9930935,
              38.3804194
            ],
            [
              -121.9930689,
              38.3804252
            ],
            [
              -121.9930437,
              38.3804292
            ],
            [
              -121.9930182,
              38.3804315
            ],
            [
              -121.9929926,
              38.3804321
            ],
            [
              -121.9929059,
              38.3804322
            ],
            [
              -121.9928805,
              38.3804292
            ],
            [
              -121.9928556,
              38.3804245
            ],
            [
              -121.9928312,
              38.3804181
            ],
            [
              -121.9928077,
              38.3804101
            ],
            [
              -121.9927851,
              38.3804004
            ],
            [
              -121.9927637,
              38.3803893
            ],
            [
              -121.9927436,
              38.3803767
            ],
            [
              -121.9927307,
              38.3803673
            ],
            [
              -121.9928294,
              38.3795583
            ]
          ]
        ]
      }
    },
    {
      "type": "Feature",
      "properties": {
        "OBJECTID": 420196,
        "APN": "0131060310",
        "govOwn": "NO",
        "areaAcres": 5.09,
        "parcelUse": "VACANT COMMERCIAL LAND",
        "subdiv": "",
        "yearBuilt": 0,
        "structDesc": "",
        "siteNumb": "148",
        "siteStreet": "PEABODY ROAD",
        "siteAddr": "148 PEABODY ROAD",
        "siteCity": "VACAVILLE",
        "siteState": "CA",
        "siteZip": "95687",
        "census": "2531.070",
        "supDist": "4th Supervisorial District",
        "senDist": "FIFTH SENATE DISTRICT",
        "congDist": "3rd Congressional DISTRIC",
        "commColl": "SOLANO COM COLLEGE DISTRICT",
        "boardEdu": "BOARD OF ED, FIRST DISTRICT",
        "assembDist": "11 th Assembly District",
        "genPlan": "Incorporated Area",
        "genPlanDes": ""
      },
      "geometry": {
        "type": "Polygon",
        "coordinates": [
          [
            [
              -121.9790807,
              38.3520689
            ],
            [
              -121.976465,
              38.3520759
            ],
            [
              -121.9764536,
              38.3520733
            ],
            [
              -121.9764426,
              38.3520698
            ],
            [
              -121.9764319,
              38.3520657
            ],
            [
              -121.9764218,
              38.3520608
            ],
            [
              -121.9764123,
              38.3520552
            ],
            [
              -121.9764034,
              38.352049
            ],
            [
              -121.9763952,
              38.3520423
            ],
            [
              -121.9763878,
              38.352035
            ],
            [
              -121.9763812,
              38.3520272
            ],
            [
              -121.9763756,
              38.3520189
            ],
            [
              -121.9763708,
              38.3520104
            ],
            [
              -121.9763671,
              38.3520015
            ],
            [
              -121.9763643,
              38.3519924
            ],
            [
              -121.9763625,
              38.3519832
            ],
            [
              -121.9763621,
              38.3519792
            ],
            [
              -121.9763697,
              38.3513371
            ],
            [
              -121.9790937,
              38.3513342
            ],
            [
              -121.9790807,
              38.3520689
            ]
          ]
        ]
      }
    }
  ]
}