{"type":"FeatureCollection","features":[{"type":"Feature","properties":{"NAME":"City Hall Park","LOCATION":"Walnut Ave. @ City Hall","TYPE":"Neighborhood"},"geometry":{"type":"Polygon","coordinates":[[[-121.99554,38.351275],[-121.995512,38.352465],[-121.994533,38.352416],[-121.994548,38.352002],[-121.994612,38.352037],[-121.994763,38.351898],[-121.994927,38.35198],[-121.995079,38.351822],[-121.995034,38.351794],[-121.99554,38.351275]]]}},{"type":"Feature","properties":{"NAME":"Ridgeview Park","LOCATION":"Tipperary Dr. & Bluewater Dr.","TYPE":"Neighborhood"},"geometry":{"type":"Polygon","coordinates":[[[-121.97467,38.389392],[-121.975188,38.389934],[-121.97451,38.390459],[-121.974074,38.390977],[-121.973739,38.390839],[-121.972003,38.390329],[-121.972101,38.390167],[-121.972441,38.390304],[-121.973497,38.389073],[-121.974007,38.388748],[-121.97467,38.389392]]]}},{"type":"Feature","properties":{"NAME":"Sierra Vista Park","LOCATION":"Greenwich Cir. - West of Bel Air Dr.","TYPE":"Neighborhood"},"geometry":{"type":"Polygon","coordinates":[[[-121.957106,38.339821],[-121.956873,38.339687],[-121.955275,38.339747],[-121.955163,38.339064],[-121.955237,38.338619],[-121.955312,38.338571],[-121.955695,38.338561],[-121.956101,38.33885],[-121.956324,38.338682],[-121.956711,38.339016],[-121.957296,38.338558],[-121.95738,38.338618],[-121.957767,38.338269],[-121.95806,38.338487],[-121.95814,38.339445],[-121.957725,38.339485],[-121.957151,38.339851],[-121.957106,38.339821]]]}},{"type":"Feature","properties":{"NAME":"Meadowlands Park","LOCATION":"Vanden Rd. @ Bluebird","TYPE":"Neighborhood"},"geometry":{"type":"Polygon","coordinates":[[[-121.94292,38.340054],[-121.944004,38.34008],[-121.94421,38.340155],[-121.944875,38.340179],[-121.944866,38.342002],[-121.944723,38.342051],[-121.943461,38.342072],[-121.943456,38.342004],[-121.943316,38.342004],[-121.943255,38.341287],[-121.94292,38.340054]]]}},{"type":"Feature","properties":{"NAME":"Pocket Park","LOCATION":"Elmira Rd. - east of Ralph Ave.","TYPE":"Neighborhood"},"geometry":{"type":"Polygon","coordinates":[[[-121.940679,38.351354],[-121.940686,38.351177],[-121.940509,38.351172],[-121.940507,38.351349],[-121.940193,38.351341],[-121.940188,38.350784],[-121.94092,38.350799],[-121.940925,38.351358],[-121.940679,38.351354]]]}},{"type":"Feature","properties":{"NAME":"Hawkins Park","LOCATION":"Summerfield Dr. & Newport Cir.","TYPE":"Neighborhood"},"geometry":{"type":"Polygon","coordinates":[[[-121.957248,38.355128],[-121.957302,38.355422],[-121.957356,38.355415],[-121.957505,38.35553],[-121.957193,38.355794],[-121.956135,38.355757],[-121.955183,38.355883],[-121.955028,38.355117],[-121.957248,38.355128]]]}},{"type":"Feature","properties":{"NAME":"Stonegate Park","LOCATION":"Stonegate Dr. & Stonewood Dr.","TYPE":"Neighborhood"},"geometry":{"type":"Polygon","coordinates":[[[-121.938577,38.360796],[-121.938661,38.360816],[-121.93928,38.361774],[-121.93947,38.362235],[-121.938842,38.362269],[-121.938532,38.362352],[-121.937923,38.362698],[-121.937379,38.361839],[-121.937316,38.361667],[-121.937268,38.361163],[-121.938577,38.360796]]]}},{"type":"Feature","properties":{"NAME":"Cooper School Park","LOCATION":"830 Christine Dr.","TYPE":"Neighborhood"},"geometry":{"type":"Polygon","coordinates":[[[-121.946463,38.357219],[-121.946277,38.357294],[-121.945305,38.355791],[-121.94675,38.355198],[-121.947084,38.355453],[-121.947597,38.355672],[-121.947768,38.355851],[-121.947757,38.356412],[-121.946289,38.35695],[-121.946463,38.357219]]]}},{"type":"Feature","properties":{"NAME":"Willows Park","LOCATION":"South of Catalina Ct. on Ogden Wy.","TYPE":"Neighborhood"},"geometry":{"type":"Polygon","coordinates":[[[-121.995944,38.346306],[-121.994675,38.345337],[-121.994888,38.345204],[-121.994926,38.345061],[-121.995369,38.344961],[-121.995851,38.345329],[-121.995876,38.345954],[-121.995982,38.346131],[-121.995944,38.346306]]]}},{"type":"Feature","properties":{"NAME":"Cannon Station Park","LOCATION":"Nut Tree Rd. & Opal Wy.","TYPE":"Neighborhood"},"geometry":{"type":"Polygon","coordinates":[[[-121.954937,38.323514],[-121.953508,38.323517],[-121.953468,38.323669],[-121.952979,38.32348],[-121.952347,38.323519],[-121.952339,38.322515],[-121.952449,38.322455],[-121.954871,38.322455],[-121.954911,38.322501],[-121.954937,38.323514]]]}},{"type":"Feature","properties":{"NAME":"Alamo Creek Park","LOCATION":"AlamoDr. & Buck Ave.","TYPE":"Neighborhood"},"geometry":{"type":"Polygon","coordinates":[[[-122.010378,38.356749],[-122.008807,38.357318],[-122.008351,38.357072],[-122.008034,38.356771],[-122.007683,38.356851],[-122.007502,38.356769],[-122.007325,38.356495],[-122.007343,38.356342],[-122.007893,38.355997],[-122.007552,38.355691],[-122.007529,38.355618],[-122.009512,38.355234],[-122.010378,38.356749]]]}},{"type":"Feature","properties":{"NAME":"Patch Park","LOCATION":"1750 Califonia Dr. @ Peabody Rd.","TYPE":"Community"},"geometry":{"type":"Polygon","coordinates":[[[-121.975201,38.333219],[-121.971944,38.333217],[-121.971929,38.33305],[-121.972105,38.33302],[-121.972104,38.332963],[-121.971444,38.332372],[-121.972349,38.332042],[-121.972315,38.331981],[-121.972708,38.331839],[-121.972331,38.331137],[-121.973121,38.330885],[-121.972398,38.330359],[-121.972614,38.330172],[-121.972665,38.330007],[-121.972835,38.329826],[-121.97302,38.329739],[-121.973465,38.329686],[-121.974549,38.330516],[-121.97467,38.330756],[-121.974569,38.330792],[-121.974382,38.331054],[-121.974136,38.331198],[-121.974235,38.331282],[-121.974203,38.331303],[-121.974245,38.331406],[-121.974407,38.331604],[-121.974664,38.331635],[-121.974968,38.331586],[-121.975127,38.331699],[-121.975129,38.331814],[-121.97507,38.331887],[-121.975043,38.332436],[-121.974875,38.332752],[-121.974676,38.332955],[-121.974781,38.333052],[-121.974896,38.333008],[-121.974896,38.333121],[-121.975122,38.333121],[-121.975122,38.333037],[-121.975197,38.333037],[-121.975201,38.333219]]]}},{"type":"Feature","properties":{"NAME":"Andrews Park","LOCATION":"Monte Vista Ave. & School Rd.","TYPE":"Community"},"geometry":{"type":"Polygon","coordinates":[[[-121.98451,38.358851],[-121.98451,38.358376],[-121.98472,38.358376],[-121.98472,38.357275],[-121.984807,38.357275],[-121.984807,38.35717],[-121.984974,38.357152],[-121.984957,38.357073],[-121.984776,38.357001],[-121.983196,38.357163],[-121.983135,38.357111],[-121.983095,38.356683],[-121.984731,38.356661],[-121.984766,38.356613],[-121.985804,38.356607],[-121.9858,38.356563],[-121.986289,38.356556],[-121.986507,38.356673],[-121.986372,38.356782],[-121.986511,38.35708],[-121.986691,38.357095],[-121.986809,38.357342],[-121.987007,38.357571],[-121.987596,38.357578],[-121.987636,38.357614],[-121.98766,38.357947],[-121.988082,38.358127],[-121.988134,38.35837],[-121.988234,38.35852],[-121.988176,38.358895],[-121.98451,38.358851]]]}},{"type":"Feature","properties":{"NAME":"Arbor Oaks Park","LOCATION":"Arbor Oaks Dr. at Leeward Ct.","TYPE":"Neighborhood"},"geometry":{"type":"Polygon","coordinates":[[[-121.937168,38.348082],[-121.936997,38.347899],[-121.936699,38.347779],[-121.936316,38.34772],[-121.936542,38.347404],[-121.936588,38.34724],[-121.93655,38.346904],[-121.937376,38.347147],[-121.938024,38.347472],[-121.937568,38.34785],[-121.937168,38.348082]]]}},{"type":"Feature","properties":{"NAME":"Arlington Park","LOCATION":"Foxboro Pkwy. & Peabody Rd.","TYPE":"Community"},"geometry":{"type":"Polygon","coordinates":[[[-121.965336,38.324708],[-121.964386,38.324108],[-121.964372,38.324029],[-121.964311,38.323993],[-121.965153,38.323109],[-121.965626,38.322686],[-121.966524,38.323114],[-121.967696,38.323473],[-121.968823,38.32363],[-121.970197,38.323644],[-121.970311,38.323731],[-121.970291,38.324728],[-121.966192,38.324746],[-121.965685,38.324638],[-121.965395,38.324745],[-121.965336,38.324708]]]}},{"type":"Feature","properties":{"NAME":"Browns Valley Park","LOCATION":"Wrentham Dr.","TYPE":"Neighborhood"},"geometry":{"type":"Polygon","coordinates":[[[-121.98319,38.382105],[-121.982961,38.382152],[-121.982569,38.382106],[-121.981804,38.381859],[-121.981554,38.382035],[-121.981422,38.382019],[-121.981395,38.381939],[-121.981466,38.381823],[-121.981513,38.381497],[-121.981681,38.381021],[-121.981611,38.380967],[-121.982293,38.38064],[-121.982868,38.381425],[-121.98319,38.382105]]]}},{"type":"Feature","properties":{"NAME":"Cambridge Park","LOCATION":"Nut Tree Rd. & Cambridge Dr.","TYPE":"Neighborhood"},"geometry":{"type":"Polygon","coordinates":[[[-121.951971,38.331867],[-121.949956,38.331875],[-121.949849,38.331835],[-121.949848,38.331711],[-121.950464,38.331218],[-121.950448,38.33099],[-121.950872,38.330989],[-121.950922,38.330906],[-121.951066,38.330907],[-121.951118,38.331003],[-121.951967,38.331011],[-121.951971,38.331867]]]}},{"type":"Feature","properties":{"NAME":"Centennial Park","LOCATION":"501 Browns Valley Rd.","TYPE":"Community"},"geometry":{"type":"Polygon","coordinates":[[[-121.975863,38.372926],[-121.975519,38.373244],[-121.975046,38.372933],[-121.974942,38.373281],[-121.97485,38.373332],[-121.974156,38.373196],[-121.974086,38.373144],[-121.974075,38.373068],[-121.97391,38.373004],[-121.973267,38.373722],[-121.972863,38.373898],[-121.972947,38.37401],[-121.972945,38.374295],[-121.972825,38.374297],[-121.972819,38.374377],[-121.971305,38.374371],[-121.971287,38.375465],[-121.971252,38.375815],[-121.971168,38.375922],[-121.970929,38.376077],[-121.970327,38.376168],[-121.969327,38.376214],[-121.969328,38.375099],[-121.969413,38.375098],[-121.96941,38.37497],[-121.969329,38.37497],[-121.969328,38.374084],[-121.969422,38.373889],[-121.969547,38.373886],[-121.969561,38.373195],[-121.969668,38.372466],[-121.969555,38.370881],[-121.96978,38.370363],[-121.970593,38.369578],[-121.970802,38.369716],[-121.96988,38.37059],[-121.969721,38.370862],[-121.969821,38.372454],[-121.969715,38.373283],[-121.96973,38.373721],[-121.971775,38.373735],[-121.97114,38.373001],[-121.97109,38.372822],[-121.9719,38.371363],[-121.972105,38.371264],[-121.973322,38.371552],[-121.974289,38.371902],[-121.975863,38.372926]]]}},{"type":"Feature","properties":{"NAME":"Fairmont-Beelard Park","LOCATION":"Beelard Dr. & Matthews Ct.","TYPE":"Neighborhood"},"geometry":{"type":"Polygon","coordinates":[[[-121.959031,38.344675],[-121.958306,38.344395],[-121.958383,38.344335],[-121.958466,38.3444],[-121.959335,38.343618],[-121.960273,38.342883],[-121.960394,38.342876],[-121.960574,38.34325],[-121.960842,38.34342],[-121.961033,38.343418],[-121.961148,38.343365],[-121.961253,38.342997],[-121.961235,38.344159],[-121.959629,38.344187],[-121.959285,38.344346],[-121.959144,38.3445],[-121.959069,38.344681],[-121.959031,38.344675]]]}},{"type":"Feature","properties":{"NAME":"Keating Park","LOCATION":"Calfornia Dr. & Alamo Dr.","TYPE":"Community"},"geometry":{"type":"Polygon","coordinates":[[[-121.982551,38.333245],[-121.982438,38.330943],[-121.987261,38.330977],[-121.987198,38.331364],[-121.987183,38.33338],[-121.986001,38.33329],[-121.982551,38.333245]]]}},{"type":"Feature","properties":{"NAME":"Larsen Park","LOCATION":"Alamo Dr. @ Rosewood Dr.","TYPE":"Neighborhood"},"geometry":{"type":"Polygon","coordinates":[[[-121.977044,38.335366],[-121.974901,38.33532],[-121.974906,38.334473],[-121.976821,38.334482],[-121.976822,38.334849],[-121.976932,38.334849],[-121.976935,38.335043],[-121.977128,38.335049],[-121.977127,38.335215],[-121.977052,38.335212],[-121.977044,38.335366]]]}},{"type":"Feature","properties":{"NAME":"Lagoon Valley Park","LOCATION":"4627 Pena Adobe Rd.\r\n","TYPE":"Regional"},"geometry":{"type":"Polygon","coordinates":[[[-122.009027,38.335999],[-122.009142,38.335973],[-122.009338,38.335831],[-122.009378,38.335765],[-122.009361,38.335669],[-122.00924,38.335642],[-122.009121,38.335749],[-122.008937,38.335733],[-122.008583,38.335865],[-122.007882,38.335854],[-122.007747,38.335812],[-122.007574,38.33567],[-122.007461,38.335496],[-122.007421,38.335322],[-122.007545,38.335208],[-122.007534,38.335026],[-122.007769,38.335021],[-122.007787,38.335396],[-122.007498,38.335405],[-122.007725,38.335723],[-122.007963,38.335803],[-122.008529,38.335811],[-122.008732,38.335762],[-122.008996,38.335578],[-122.009418,38.334803],[-122.009911,38.334295],[-122.009759,38.334069],[-122.009224,38.333587],[-122.009035,38.333307],[-122.008894,38.332889],[-122.008833,38.332282],[-122.008028,38.332244],[-122.008144,38.331802],[-122.008166,38.33112],[-122.008164,38.330997],[-122.008057,38.330907],[-122.008018,38.330781],[-122.008149,38.330522],[-122.008261,38.32954],[-122.008537,38.329595],[-122.008646,38.329749],[-122.008883,38.329624],[-122.009503,38.32974],[-122.009541,38.328959],[-122.009436,38.32801],[-122.009266,38.327423],[-122.00898,38.326724],[-122.00891,38.326441],[-122.008856,38.326392],[-122.008679,38.326425],[-122.007687,38.326907],[-122.007607,38.327009],[-122.007569,38.327455],[-122.007374,38.32748],[-122.007277,38.327548],[-122.007169,38.327521],[-122.007081,38.327046],[-122.007632,38.326867],[-122.008866,38.326306],[-122.00899,38.32569],[-122.009139,38.325377],[-122.009365,38.32507],[-122.009374,38.32496],[-122.00944,38.324898],[-122.009605,38.324862],[-122.009887,38.32463],[-122.00991,38.324529],[-122.00972,38.324445],[-122.007883,38.324345],[-122.00768,38.324395],[-122.007539,38.32457],[-122.007584,38.325113],[-122.007777,38.325147],[-122.007865,38.325472],[-122.007907,38.325448],[-122.007938,38.325487],[-122.007559,38.325719],[-122.007518,38.325679],[-122.007499,38.324503],[-122.007104,38.32451],[-122.007095,38.324426],[-122.006903,38.324415],[-122.00691,38.324304],[-122.007027,38.324218],[-122.009878,38.324414],[-122.010003,38.324378],[-122.010032,38.324327],[-122.010134,38.324338],[-122.010046,38.324594],[-122.009653,38.324924],[-122.009602,38.325068],[-122.009438,38.325135],[-122.009235,38.325408],[-122.009093,38.325704],[-122.009004,38.32612],[-122.009479,38.325953],[-122.010527,38.325902],[-122.010444,38.326556],[-122.010508,38.32676],[-122.010638,38.326945],[-122.010647,38.327049],[-122.010602,38.327201],[-122.010408,38.32745],[-122.010656,38.327683],[-122.010841,38.32795],[-122.010995,38.328441],[-122.010749,38.329693],[-122.01055,38.330009],[-122.010203,38.330291],[-122.010132,38.330433],[-122.010153,38.331183],[-122.010484,38.33223],[-122.010449,38.332399],[-122.010248,38.332727],[-122.010183,38.333119],[-122.010315,38.333323],[-122.010716,38.333565],[-122.009983,38.334092],[-122.010507,38.334439],[-122.01075,38.334473],[-122.01098,38.3344],[-122.011431,38.334059],[-122.011605,38.33398],[-122.011813,38.333962],[-122.012116,38.33403],[-122.012343,38.334135],[-122.012622,38.334347],[-122.012964,38.334695],[-122.013242,38.335159],[-122.013467,38.335268],[-122.013575,38.335267],[-122.013518,38.335096],[-122.013706,38.335115],[-122.013845,38.335216],[-122.014265,38.335076],[-122.014722,38.334822],[-122.015037,38.334779],[-122.014952,38.335071],[-122.014952,38.335337],[-122.014584,38.335305],[-122.014257,38.33517],[-122.013837,38.335311],[-122.013863,38.335399],[-122.013629,38.335429],[-122.013606,38.335339],[-122.013356,38.335318],[-122.013178,38.335224],[-122.012815,38.334665],[-122.012474,38.334339],[-122.01199,38.334066],[-122.011696,38.334045],[-122.011477,38.334133],[-122.010946,38.334519],[-122.010633,38.334552],[-122.0104,38.334473],[-122.010094,38.334749],[-122.009788,38.335172],[-122.009638,38.335922],[-122.009381,38.335831],[-122.009144,38.336035],[-122.008942,38.336409],[-122.00886,38.336671],[-122.008416,38.336833],[-122.008255,38.336704],[-122.008095,38.33622],[-122.009027,38.335999]]]}},{"type":"Feature","properties":{"NAME":"Nelson Park","LOCATION":"Nut Tree Rd. & Marshall Rd.","TYPE":"Community"},"geometry":{"type":"Polygon","coordinates":[[[-121.953059,38.347812],[-121.952564,38.347736],[-121.952563,38.347792],[-121.951891,38.34769],[-121.95178,38.347708],[-121.950455,38.34748],[-121.949828,38.347478],[-121.94939,38.347837],[-121.948901,38.347741],[-121.948626,38.34745],[-121.948523,38.347272],[-121.94853,38.347045],[-121.948728,38.346752],[-121.948852,38.346794],[-121.948708,38.3471],[-121.948734,38.34736],[-121.948991,38.347605],[-121.949362,38.347654],[-121.94962,38.347537],[-121.950007,38.347214],[-121.950374,38.347093],[-121.950791,38.346677],[-121.950864,38.34649],[-121.950708,38.346094],[-121.951005,38.345927],[-121.950744,38.345662],[-121.950394,38.345918],[-121.950156,38.345939],[-121.950155,38.345618],[-121.950032,38.345575],[-121.950227,38.345115],[-121.950598,38.345218],[-121.950853,38.34536],[-121.951542,38.346031],[-121.951806,38.346197],[-121.952218,38.346339],[-121.953,38.346419],[-121.953082,38.34679],[-121.953059,38.347812]]]}},{"type":"Feature","properties":{"NAME":"Normandy Meadows Park","LOCATION":"Meadowlark Dr. & Chateau Cir.","TYPE":"Neighborhood"},"geometry":{"type":"Polygon","coordinates":[[[-121.937709,38.33788],[-121.937373,38.338012],[-121.937354,38.33792],[-121.937143,38.337664],[-121.937448,38.337535],[-121.937709,38.33788]]]}},{"type":"Feature","properties":{"NAME":"North Orchard Park","LOCATION":"Orchard Ave. & Crestview Dr.","TYPE":"Neighborhood"},"geometry":{"type":"MultiPolygon","coordinates":[[[[-122.002016,38.374681],[-122.00333,38.373152],[-122.004434,38.373158],[-122.004504,38.373192],[-122.004492,38.374529],[-122.002496,38.374517],[-122.002243,38.374814],[-122.001986,38.374813],[-122.002016,38.374681]]],[[[-122.004263,38.372063],[-122.004368,38.371944],[-122.004522,38.371991],[-122.004499,38.372998],[-122.003442,38.373018],[-122.004263,38.372063]]]]}},{"type":"Feature","properties":{"NAME":"Padan Park","LOCATION":"Alonzo Rd. & Padan School Rd.","TYPE":"Neighborhood"},"geometry":{"type":"Polygon","coordinates":[[[-121.984653,38.340872],[-121.984636,38.342326],[-121.984109,38.342339],[-121.983739,38.342497],[-121.983361,38.342354],[-121.982933,38.342304],[-121.982894,38.341983],[-121.982757,38.341589],[-121.982762,38.341196],[-121.982806,38.341074],[-121.983166,38.34086],[-121.984653,38.340872]]]}},{"type":"Feature","properties":{"NAME":"Patwin Park","LOCATION":"Elmira Rd. & Leisure Town Rd.","TYPE":"Neighborhood"},"geometry":{"type":"Polygon","coordinates":[[[-121.937155,38.351277],[-121.935705,38.351254],[-121.935712,38.350953],[-121.93582,38.350836],[-121.936051,38.350395],[-121.936614,38.350338],[-121.93681,38.350204],[-121.937005,38.349841],[-121.937247,38.349894],[-121.937196,38.350066],[-121.937155,38.351277]]]}},{"type":"Feature","properties":{"NAME":"Pena Adobe Park","LOCATION":"4699 Pena Adobe Rd.","TYPE":"Regional"},"geometry":{"type":"Polygon","coordinates":[[[-122.015966,38.337002],[-122.015996,38.33701],[-122.015962,38.337083],[-122.015483,38.337731],[-122.014751,38.338546],[-122.013794,38.339441],[-122.013665,38.33936],[-122.013785,38.339226],[-122.013816,38.339119],[-122.013769,38.338724],[-122.013875,38.338279],[-122.013879,38.338028],[-122.014055,38.337719],[-122.01409,38.33757],[-122.013857,38.337045],[-122.013834,38.336788],[-122.01389,38.336535],[-122.014299,38.33666],[-122.014802,38.336742],[-122.014824,38.3368],[-122.014975,38.3368],[-122.014964,38.33669],[-122.015966,38.337002]]]}},{"type":"Feature","properties":{"NAME":"Pheasant Country Park","LOCATION":"Madison Ave. & Nancy Cir.","TYPE":"Neighborhood"},"geometry":{"type":"Polygon","coordinates":[[[-121.965156,38.328214],[-121.966125,38.32839],[-121.96609,38.328889],[-121.96611,38.33058],[-121.965111,38.330583],[-121.965111,38.330672],[-121.964755,38.330665],[-121.964752,38.329797],[-121.964801,38.329656],[-121.964762,38.329557],[-121.965105,38.32928],[-121.964603,38.328671],[-121.964936,38.328442],[-121.965156,38.328214]]]}},{"type":"Feature","properties":{"NAME":"Southwood Park","LOCATION":"Southwood Dr. & Sherwood Ct.","TYPE":"Neighborhood"},"geometry":{"type":"Polygon","coordinates":[[[-121.977115,38.338343],[-121.977622,38.338533],[-121.978321,38.338586],[-121.978917,38.338411],[-121.979039,38.338598],[-121.978852,38.338674],[-121.97848,38.339004],[-121.978007,38.339262],[-121.977301,38.3393],[-121.97714,38.339264],[-121.97694,38.339131],[-121.976792,38.33868],[-121.97665,38.338592],[-121.976198,38.33853],[-121.975264,38.338292],[-121.974835,38.338497],[-121.974346,38.338577],[-121.974202,38.338322],[-121.974923,38.338129],[-121.975582,38.33812],[-121.97608,38.338237],[-121.97669,38.338459],[-121.97692,38.338589],[-121.977063,38.338525],[-121.977115,38.338343]]]}},{"type":"Feature","properties":{"NAME":"Southtown Pocket Park","LOCATION":"Salisbury Cir. & Turnbridge St.","TYPE":"Neighborhood"},"geometry":{"type":"Polygon","coordinates":[[[-121.949981,38.327648],[-121.949052,38.32765],[-121.948986,38.327598],[-121.948985,38.32729],[-121.949051,38.327238],[-121.950051,38.327241],[-121.950093,38.327287],[-121.950071,38.327482],[-121.949981,38.327648]]]}},{"type":"Feature","properties":{"NAME":"Three Oaks Park","LOCATION":"1100 Alamo Dr.","TYPE":"Community"},"geometry":{"type":"Polygon","coordinates":[[[-121.994019,38.342082],[-121.992635,38.341057],[-121.99329,38.340528],[-121.994034,38.34021],[-121.994951,38.339487],[-121.995085,38.339669],[-121.995025,38.339716],[-121.995627,38.340158],[-121.995626,38.340248],[-121.995714,38.340297],[-121.996027,38.340044],[-121.996367,38.340298],[-121.994169,38.342063],[-121.994019,38.342082]]]}},{"type":"Feature","properties":{"NAME":"Trower Park","LOCATION":"Markham Ave. & Holly Ln.","TYPE":"Neighborhood"},"geometry":{"type":"MultiPolygon","coordinates":[[[[-121.981157,38.365302],[-121.98118,38.364721],[-121.98236,38.364766],[-121.982584,38.364986],[-121.982683,38.365183],[-121.982699,38.365702],[-121.981136,38.365639],[-121.981157,38.365302]]],[[[-121.982569,38.364773],[-121.983059,38.364785],[-121.983297,38.365731],[-121.982841,38.365713],[-121.982836,38.365201],[-121.982737,38.364974],[-121.982569,38.364773]]]]}},{"type":"Feature","properties":{"NAME":"Southtown Magnolia Park","LOCATION":"Cogburn Cir.","TYPE":"Neighborhood"},"geometry":{"type":"MultiPolygon","coordinates":[[[[-121.941752,38.325165],[-121.943053,38.325162],[-121.943043,38.326607],[-121.941597,38.326599],[-121.94127,38.326501],[-121.941014,38.326313],[-121.940842,38.325965],[-121.940851,38.325764],[-121.940929,38.325572],[-121.941071,38.325405],[-121.941266,38.325276],[-121.941752,38.325165]]],[[[-121.94317,38.325143],[-121.94443,38.325142],[-121.944857,38.325249],[-121.945099,38.325415],[-121.945255,38.325637],[-121.945309,38.325888],[-121.94525,38.326139],[-121.945043,38.326398],[-121.94475,38.326559],[-121.944468,38.326619],[-121.943893,38.326624],[-121.943895,38.32605],[-121.943166,38.326047],[-121.94317,38.325143]]]]}},{"type":"Feature","properties":{"NAME":"Corderos Park","LOCATION":"Parkside Dr. (North Village)","TYPE":"Neighborhood"},"geometry":{"type":"Polygon","coordinates":[[[-121.934895,38.398538],[-121.935488,38.398536],[-121.935592,38.398645],[-121.936297,38.398671],[-121.93643,38.398653],[-121.936524,38.398523],[-121.936805,38.398546],[-121.936793,38.40043],[-121.935406,38.400425],[-121.935357,38.399891],[-121.935261,38.39967],[-121.935019,38.399322],[-121.934921,38.39907],[-121.934895,38.398538]]]}},{"type":"Feature","properties":{"NAME":"Lower Lagoon Valley Park","LOCATION":"Paradise Valley Rd.","TYPE":"Neighborhood"},"geometry":{"type":"Polygon","coordinates":[[[-122.016372,38.32006],[-122.018743,38.321942],[-122.018297,38.322107],[-122.016305,38.322166],[-122.016372,38.32006]]]}},{"type":"Feature","properties":{"NAME":"Centennial Park (Expansion)","LOCATION":"501 Browns Valley Rd.","TYPE":"Community"},"geometry":{"type":"MultiPolygon","coordinates":[[[[-121.966654,38.378978],[-121.967789,38.37749],[-121.96796,38.377533],[-121.968069,38.377509],[-121.968372,38.377162],[-121.968559,38.377162],[-121.968583,38.37712],[-121.968438,38.377015],[-121.968414,38.376887],[-121.968819,38.376492],[-121.968831,38.376368],[-121.967829,38.376274],[-121.967831,38.376212],[-121.969195,38.376277],[-121.969327,38.376209],[-121.970327,38.376168],[-121.970929,38.376077],[-121.971197,38.375899],[-121.971259,38.375784],[-121.971305,38.374371],[-121.972819,38.374377],[-121.972825,38.374297],[-121.972945,38.374295],[-121.972947,38.37401],[-121.972863,38.373898],[-121.973267,38.373722],[-121.97391,38.373004],[-121.974075,38.373068],[-121.974086,38.373144],[-121.974156,38.373196],[-121.97485,38.373332],[-121.974942,38.373281],[-121.975046,38.372933],[-121.975519,38.373244],[-121.975863,38.372926],[-121.97595,38.372984],[-121.973594,38.379041],[-121.966654,38.378978]]],[[[-121.971632,38.373724],[-121.969765,38.37373],[-121.96971,38.373695],[-121.969715,38.373283],[-121.969821,38.372454],[-121.969729,38.371094],[-121.969775,38.370853],[-121.969834,38.370705],[-121.96997,38.370554],[-121.970928,38.369707],[-121.971042,38.369731],[-121.974733,38.372177],[-121.974289,38.371902],[-121.973322,38.371552],[-121.972203,38.371262],[-121.97197,38.371309],[-121.9719,38.371363],[-121.97109,38.372822],[-121.97114,38.373001],[-121.971775,38.373735],[-121.971632,38.373724]]],[[[-121.969481,38.371018],[-121.969438,38.37094],[-121.969043,38.370967],[-121.968811,38.370923],[-121.968834,38.370794],[-121.969041,38.370601],[-121.969121,38.370457],[-121.968994,38.370235],[-121.9684,38.369903],[-121.968302,38.369609],[-121.968591,38.36871],[-121.969374,38.368689],[-121.969522,38.3686],[-121.969391,38.368328],[-121.969821,38.368791],[-121.970581,38.369424],[-121.970614,38.369495],[-121.969651,38.370487],[-121.969504,38.370813],[-121.969506,38.371056],[-121.969481,38.371018]]]]}},{"type":"Feature","properties":{"NAME":"Centennial Park (Expansion)","LOCATION":"501 Browns Valley Rd.","TYPE":"Community"},"geometry":{"type":"Polygon","coordinates":[[[-121.965343,38.380817],[-121.9653,38.38093],[-121.96543,38.381075],[-121.966087,38.38149],[-121.966169,38.381479],[-121.966285,38.381248],[-121.966744,38.381167],[-121.966737,38.381086],[-121.966286,38.380355],[-121.966108,38.380172],[-121.965843,38.380054],[-121.966654,38.378978],[-121.973594,38.379041],[-121.970775,38.386386],[-121.967938,38.386537],[-121.967651,38.386475],[-121.965273,38.386642],[-121.964838,38.385122],[-121.964423,38.382366],[-121.964639,38.381843],[-121.965343,38.380817]]]}},{"type":"Feature","properties":{"NAME":"Keating Park","LOCATION":"California Dr. & Alamo Dr.","TYPE":"Community"},"geometry":{"type":"Polygon","coordinates":[[[-121.988608,38.330979],[-121.985825,38.330935],[-121.98515,38.329499],[-121.989283,38.329512],[-121.988608,38.330979]]]}},{"type":"Feature","properties":{"NAME":"Wellsite Bike Rest 2","LOCATION":"Elmira Road (East of Christine Drive)","TYPE":"Neighborhood"},"geometry":{"type":"Polygon","coordinates":[[[-121.947392,38.351477],[-121.94666,38.351462],[-121.946678,38.350918],[-121.94741,38.350933],[-121.947392,38.351477]]]}},{"type":"Feature","properties":{"NAME":"Nelson Park (Eleanor)","LOCATION":"Nut Tree Rd. & Marshall Rd.","TYPE":"Community"},"geometry":{"type":"Polygon","coordinates":[[[-121.950744,38.345662],[-121.951005,38.345927],[-121.950708,38.346094],[-121.950856,38.346451],[-121.950857,38.34657],[-121.950374,38.347093],[-121.950007,38.347214],[-121.94962,38.347537],[-121.949424,38.34764],[-121.949108,38.347647],[-121.948823,38.347476],[-121.948734,38.34736],[-121.948703,38.347165],[-121.948743,38.346971],[-121.948852,38.346794],[-121.94873,38.346753],[-121.948964,38.346801],[-121.949032,38.346663],[-121.949166,38.346537],[-121.949638,38.346394],[-121.949726,38.346309],[-121.949609,38.346172],[-121.949372,38.34613],[-121.949253,38.345728],[-121.950035,38.345567],[-121.950155,38.345618],[-121.950156,38.345939],[-121.95029,38.345936],[-121.950422,38.345904],[-121.950744,38.345662]]]}},{"type":"Feature","properties":{"NAME":"Patch Park (Al)","LOCATION":"1750 California Dr. & Peabody Rd.","TYPE":"Community"},"geometry":{"type":"MultiPolygon","coordinates":[[[[-121.972105,38.33302],[-121.971929,38.33305],[-121.971943,38.333217],[-121.970629,38.333217],[-121.970564,38.330043],[-121.97302,38.329739],[-121.972736,38.329908],[-121.972614,38.330172],[-121.972398,38.330359],[-121.973121,38.330885],[-121.972331,38.331137],[-121.972708,38.331839],[-121.972315,38.331981],[-121.972349,38.332042],[-121.971444,38.332372],[-121.972104,38.332963],[-121.972105,38.33302]]],[[[-121.974896,38.333008],[-121.974781,38.333052],[-121.974676,38.332955],[-121.974875,38.332752],[-121.975043,38.332436],[-121.97507,38.331887],[-121.975129,38.331814],[-121.975127,38.331699],[-121.974968,38.331586],[-121.974664,38.331635],[-121.974407,38.331604],[-121.974245,38.331406],[-121.974203,38.331303],[-121.974235,38.331282],[-121.974136,38.331198],[-121.974382,38.331054],[-121.974569,38.330792],[-121.97467,38.330756],[-121.975162,38.331721],[-121.975197,38.333037],[-121.975122,38.333037],[-121.975122,38.333121],[-121.974896,38.333121],[-121.974896,38.333008]]],[[[-121.973465,38.329686],[-121.974087,38.329611],[-121.974549,38.330516],[-121.973465,38.329686]]]]}},{"type":"Feature","properties":{"NAME":"Southtown Pocket Park #2","LOCATION":"Vanden Rd.","TYPE":"Neighborhood"},"geometry":{"type":"Polygon","coordinates":[[[-121.940206,38.328736],[-121.938282,38.328731],[-121.938623,38.3286],[-121.939052,38.328307],[-121.939145,38.328298],[-121.939618,38.328509],[-121.940129,38.328656],[-121.940206,38.328736]]]}},{"type":"Feature","properties":{"NAME":"Hemlock Park","LOCATION":"Eldridge Ave. & Laramie Wy.","TYPE":"Neighborhood"},"geometry":{"type":"Polygon","coordinates":[[[-122.002865,38.366271],[-122.002865,38.367517],[-122.001406,38.367516],[-122.001415,38.366733],[-122.00152,38.36662],[-122.001513,38.366271],[-122.002865,38.366271]]]}},{"type":"Feature","properties":{"NAME":"NV6","LOCATION":null,"TYPE":null},"geometry":{"type":"Polygon","coordinates":[[[-121.947575,38.400431],[-121.947317,38.400398],[-121.947402,38.399919],[-121.947675,38.399955],[-121.947575,38.400431]]]}},{"type":"Feature","properties":{"NAME":"NV7","LOCATION":"North Village Unit7","TYPE":"Neighborhood"},"geometry":{"type":"Polygon","coordinates":[[[-121.946432,38.40541],[-121.946145,38.405369],[-121.946196,38.405133],[-121.946492,38.405174],[-121.946432,38.40541]]]}},{"type":"Feature","properties":{"NAME":"Brighton Landing Park","LOCATION":"Sunflower St & Honeysuckle Dr","TYPE":"Community"},"geometry":{"type":"Polygon","coordinates":[[[-121.924499,38.346951],[-121.924446,38.34641],[-121.924523,38.346458],[-121.924888,38.346395],[-121.925482,38.346044],[-121.925742,38.345953],[-121.92693,38.345918],[-121.927,38.345862],[-121.927008,38.347203],[-121.926955,38.347162],[-121.926718,38.347163],[-121.926527,38.347058],[-121.924636,38.347064],[-121.924499,38.346951]]]}},{"type":"Feature","properties":{"NAME":"Hume Grove Park","LOCATION":"4627 Pena Adobe Rd.","TYPE":"Community"},"geometry":{"type":"Polygon","coordinates":[[[-122.010861,38.340332],[-122.010761,38.340468],[-122.010525,38.340508],[-122.010317,38.340375],[-122.010303,38.340308],[-122.010394,38.339836],[-122.010571,38.33931],[-122.010752,38.339231],[-122.011052,38.339299],[-122.011097,38.339371],[-122.010861,38.340332]]]}}]}